start=new Date('2023-04-11T00:00:00.000Z').valueOf();
sats=[{"APOAPSIS":"541.013","BSTAR":"0.00031701000000","MEAN_ANOMALY":"296.3276","PERIAPSIS":"538.423","MEAN_ELEMENT_THEORY":"SGP4","TIME_SYSTEM":"UTC","MEAN_MOTION_DDOT":"0.0000000000000","CENTER_NAME":"EARTH","TLE_LINE2":"2 53005  53.2136 190.8024 0001872  63.7908 296.3276 15.08849048 42211","MEAN_MOTION_DOT":"0.00004762","OBJECT_ID":"2022-076V","DECAY_DATE":null,"OBJECT_NAME":"STARLINK-4288","REV_AT_EPOCH":"4221","MEAN_MOTION":"15.08849048","ELEMENT_SET_NO":"999","EPOCH":"2023-04-10T15:29:46.402080","CLASSIFICATION_TYPE":"U","FILE":"3885363","PERIOD":"95.437","INCLINATION":"53.2136","TLE_LINE1":"1 53005U 22076V   23100.64567595  .00004762  00000-0  31701-3 0  9997","ECCENTRICITY":"0.00018720","ARG_OF_PERICENTER":"63.7908","COUNTRY_CODE":"US","LAUNCH_DATE":"2022-07-07","EPHEMERIS_TYPE":"0","RA_OF_ASC_NODE":"190.8024","REF_FRAME":"TEME","NORAD_CAT_ID":"53005","RCS_SIZE":"LARGE","SEMIMAJOR_AXIS":"6917.853","SITE":"AFETR","OBJECT_TYPE":"PAYLOAD","GP_ID":"229880931"},{"NORAD_CAT_ID":"53006","REF_FRAME":"TEME","RCS_SIZE":"LARGE","SEMIMAJOR_AXIS":"6917.877","OBJECT_TYPE":"PAYLOAD","SITE":"AFETR","GP_ID":"229848969","LAUNCH_DATE":"2022-07-07","EPHEMERIS_TYPE":"0","RA_OF_ASC_NODE":"192.5517","PERIOD":"95.437","INCLINATION":"53.2146","TLE_LINE1":"1 53006U 22076W   23100.25559809  .00002083  00000-0  14894-3 0  9992","ECCENTRICITY":"0.00014710","ARG_OF_PERICENTER":"76.7078","COUNTRY_CODE":"US","FILE":"3885195","MEAN_MOTION":"15.08841058","ELEMENT_SET_NO":"999","CLASSIFICATION_TYPE":"U","EPOCH":"2023-04-10T06:08:03.674976","MEAN_MOTION_DOT":"0.00002083","OBJECT_ID":"2022-076W","DECAY_DATE":null,"OBJECT_NAME":"STARLINK-4290","REV_AT_EPOCH":"4215","CENTER_NAME":"EARTH","MEAN_MOTION_DDOT":"0.0000000000000","TIME_SYSTEM":"UTC","TLE_LINE2":"2 53006  53.2146 192.5517 0001471  76.7078 283.4078 15.08841058 42159","APOAPSIS":"540.760","BSTAR":"0.00014894000000","MEAN_ANOMALY":"283.4078","PERIAPSIS":"538.725","MEAN_ELEMENT_THEORY":"SGP4"},{"MEAN_MOTION_DDOT":"0.0000000000000","TIME_SYSTEM":"UTC","CENTER_NAME":"EARTH","TLE_LINE2":"2 53007  53.2159 190.8317 0001280  97.8729 262.2408 15.08852254 42688","MEAN_ANOMALY":"262.2408","PERIAPSIS":"538.822","BSTAR":"0.00018061000000","APOAPSIS":"540.593","MEAN_ELEMENT_THEORY":"SGP4","ELEMENT_SET_NO":"999","MEAN_MOTION":"15.08852254","CLASSIFICATION_TYPE":"U","EPOCH":"2023-04-10T15:19:09.698880","MEAN_MOTION_DOT":"0.00002589","REV_AT_EPOCH":"4268","OBJECT_NAME":"STARLINK-4215","DECAY_DATE":null,"OBJECT_ID":"2022-076X","INCLINATION":"53.2159","PERIOD":"95.437","COUNTRY_CODE":"US","ARG_OF_PERICENTER":"97.8729","ECCENTRICITY":"0.00012800","TLE_LINE1":"1 53007U 22076X   23100.63830670  .00002589  00000-0  18061-3 0  9994","FILE":"3885175","NORAD_CAT_ID":"53007","REF_FRAME":"TEME","GP_ID":"229825684","OBJECT_TYPE":"PAYLOAD","SITE":"AFETR","SEMIMAJOR_AXIS":"6917.843","RCS_SIZE":"LARGE","LAUNCH_DATE":"2022-07-07","RA_OF_ASC_NODE":"190.8317","EPHEMERIS_TYPE":"0"},{"LAUNCH_DATE":"2022-07-07","RA_OF_ASC_NODE":"192.5966","EPHEMERIS_TYPE":"0","REF_FRAME":"TEME","NORAD_CAT_ID":"53008","RCS_SIZE":"LARGE","SEMIMAJOR_AXIS":"6917.878","OBJECT_TYPE":"PAYLOAD","SITE":"AFETR","GP_ID":"229849971","FILE":"3885195","PERIOD":"95.438","INCLINATION":"53.2180","TLE_LINE1":"1 53008U 22076Y   23100.24551560  .00002047  00000-0  14668-3 0  9998","ECCENTRICITY":"0.00014830","ARG_OF_PERICENTER":"92.3469","COUNTRY_CODE":"US","MEAN_MOTION_DOT":"0.00002047","DECAY_DATE":null,"OBJECT_ID":"2022-076Y","OBJECT_NAME":"STARLINK-4275","REV_AT_EPOCH":"4215","MEAN_MOTION":"15.08840669","ELEMENT_SET_NO":"999","EPOCH":"2023-04-10T05:53:32.547840","CLASSIFICATION_TYPE":"U","APOAPSIS":"540.769","BSTAR":"0.00014668000000","PERIAPSIS":"538.717","MEAN_ANOMALY":"267.7693","MEAN_ELEMENT_THEORY":"SGP4","CENTER_NAME":"EARTH","MEAN_MOTION_DDOT":"0.0000000000000","TIME_SYSTEM":"UTC","TLE_LINE2":"2 53008  53.2180 192.5966 0001483  92.3469 267.7693 15.08840669 42153"},{"INCLINATION":"53.2167","PERIOD":"95.438","COUNTRY_CODE":"US","ARG_OF_PERICENTER":"75.7360","TLE_LINE1":"1 53009U 22076Z   23100.22707975  .00001660  00000-0  12240-3 0  9994","ECCENTRICITY":"0.00017620","FILE":"3885195","NORAD_CAT_ID":"53009","REF_FRAME":"TEME","GP_ID":"229850718","OBJECT_TYPE":"PAYLOAD","SITE":"AFETR","SEMIMAJOR_AXIS":"6917.885","RCS_SIZE":"LARGE","LAUNCH_DATE":"2022-07-07","RA_OF_ASC_NODE":"182.6803","EPHEMERIS_TYPE":"0","MEAN_MOTION_DDOT":"0.0000000000000","TIME_SYSTEM":"UTC","CENTER_NAME":"EARTH","TLE_LINE2":"2 53009  53.2167 182.6803 0001762  75.7360 284.3828 15.08838582 42284","PERIAPSIS":"538.531","MEAN_ANOMALY":"284.3828","BSTAR":"0.00012240000000","APOAPSIS":"540.969","MEAN_ELEMENT_THEORY":"SGP4","ELEMENT_SET_NO":"999","MEAN_MOTION":"15.08838582","EPOCH":"2023-04-10T05:26:59.690400","CLASSIFICATION_TYPE":"U","MEAN_MOTION_DOT":"0.00001660","REV_AT_EPOCH":"4228","OBJECT_NAME":"STARLINK-4277","DECAY_DATE":null,"OBJECT_ID":"2022-076Z"},{"MEAN_ELEMENT_THEORY":"SGP4","APOAPSIS":"540.958","BSTAR":"0.00020956000000","PERIAPSIS":"538.509","MEAN_ANOMALY":"280.4217","TLE_LINE2":"2 53010  53.2159 192.6004 0001770  79.6975 280.4217 15.08843934 42157","MEAN_MOTION_DDOT":"0.0000000000000","TIME_SYSTEM":"UTC","CENTER_NAME":"EARTH","DECAY_DATE":null,"OBJECT_ID":"2022-076AA","OBJECT_NAME":"STARLINK-4263","REV_AT_EPOCH":"4215","MEAN_MOTION_DOT":"0.00003049","CLASSIFICATION_TYPE":"U","EPOCH":"2023-04-10T05:52:09.811200","MEAN_MOTION":"15.08843934","ELEMENT_SET_NO":"999","FILE":"3885195","ECCENTRICITY":"0.00017700","TLE_LINE1":"1 53010U 22076AA  23100.24455800  .00003049  00000-0  20956-3 0  9991","ARG_OF_PERICENTER":"79.6975","COUNTRY_CODE":"US","PERIOD":"95.437","INCLINATION":"53.2159","RA_OF_ASC_NODE":"192.6004","EPHEMERIS_TYPE":"0","LAUNCH_DATE":"2022-07-07","RCS_SIZE":"LARGE","SEMIMAJOR_AXIS":"6917.868","SITE":"AFETR","OBJECT_TYPE":"PAYLOAD","GP_ID":"229849469","REF_FRAME":"TEME","NORAD_CAT_ID":"53010"},{"PERIOD":"95.436","INCLINATION":"53.2135","ARG_OF_PERICENTER":"65.0452","TLE_LINE1":"1 53011U 22076AB  23100.68707295  .00016100  00000-0  10265-2 0  9991","ECCENTRICITY":"0.00013330","COUNTRY_CODE":"US","FILE":"3885363","NORAD_CAT_ID":"53011","REF_FRAME":"TEME","OBJECT_TYPE":"PAYLOAD","SITE":"AFETR","RCS_SIZE":"LARGE","SEMIMAJOR_AXIS":"6917.789","GP_ID":"229879931","LAUNCH_DATE":"2022-07-07","EPHEMERIS_TYPE":"0","RA_OF_ASC_NODE":"180.6143","MEAN_MOTION_DDOT":"0.0000000000000","TIME_SYSTEM":"UTC","CENTER_NAME":"EARTH","TLE_LINE2":"2 53011  53.2135 180.6143 0001333  65.0452 295.0679 15.08869983 42355","BSTAR":"0.00102650000000","APOAPSIS":"540.576","PERIAPSIS":"538.732","MEAN_ANOMALY":"295.0679","MEAN_ELEMENT_THEORY":"SGP4","ELEMENT_SET_NO":"999","MEAN_MOTION":"15.08869983","CLASSIFICATION_TYPE":"U","EPOCH":"2023-04-10T16:29:23.102880","MEAN_MOTION_DOT":"0.00016100","OBJECT_ID":"2022-076AB","DECAY_DATE":null,"REV_AT_EPOCH":"4235","OBJECT_NAME":"STARLINK-4265"},{"PERIAPSIS":"539.010","MEAN_ANOMALY":"263.4757","BSTAR":"0.00016503000000","APOAPSIS":"540.498","MEAN_ELEMENT_THEORY":"SGP4","TIME_SYSTEM":"UTC","MEAN_MOTION_DDOT":"0.0000000000000","CENTER_NAME":"EARTH","TLE_LINE2":"2 53012  53.2152 192.3353 0001076  96.6358 263.4757 15.08837223 42164","MEAN_MOTION_DOT":"0.00002339","REV_AT_EPOCH":"4216","OBJECT_NAME":"STARLINK-4271","DECAY_DATE":null,"OBJECT_ID":"2022-076AC","ELEMENT_SET_NO":"999","MEAN_MOTION":"15.08837223","EPOCH":"2023-04-10T07:16:56.986176","CLASSIFICATION_TYPE":"U","FILE":"3885195","INCLINATION":"53.2152","PERIOD":"95.438","COUNTRY_CODE":"US","ARG_OF_PERICENTER":"96.6358","ECCENTRICITY":"0.00010760","TLE_LINE1":"1 53012U 22076AC  23100.30343734  .00002339  00000-0  16503-3 0  9996","LAUNCH_DATE":"2022-07-07","EPHEMERIS_TYPE":"0","RA_OF_ASC_NODE":"192.3353","REF_FRAME":"TEME","NORAD_CAT_ID":"53012","GP_ID":"229850470","OBJECT_TYPE":"PAYLOAD","SITE":"AFETR","RCS_SIZE":"LARGE","SEMIMAJOR_AXIS":"6917.889"},{"CLASSIFICATION_TYPE":"U","EPOCH":"2023-04-10T14:43:23.715552","ELEMENT_SET_NO":"999","MEAN_MOTION":"15.08854949","REV_AT_EPOCH":"4234","OBJECT_NAME":"STARLINK-4177","DECAY_DATE":null,"OBJECT_ID":"2022-076AD","MEAN_MOTION_DOT":"0.00000673","TLE_LINE2":"2 53013  53.2145 180.9458 0001534  80.9484 279.1682 15.08854949 42346","MEAN_MOTION_DDOT":"0.0000000000000","CENTER_NAME":"EARTH","TIME_SYSTEM":"UTC","MEAN_ELEMENT_THEORY":"SGP4","PERIAPSIS":"538.639","MEAN_ANOMALY":"279.1682","BSTAR":"0.00006038400000","APOAPSIS":"540.761","GP_ID":"229880932","SITE":"AFETR","OBJECT_TYPE":"PAYLOAD","RCS_SIZE":"LARGE","SEMIMAJOR_AXIS":"6917.835","NORAD_CAT_ID":"53013","REF_FRAME":"TEME","RA_OF_ASC_NODE":"180.9458","EPHEMERIS_TYPE":"0","LAUNCH_DATE":"2022-07-07","COUNTRY_CODE":"US","ARG_OF_PERICENTER":"80.9484","TLE_LINE1":"1 53013U 22076AD  23100.61346893  .00000673  00000-0  60384-4 0  9996","ECCENTRICITY":"0.00015340","INCLINATION":"53.2145","PERIOD":"95.437","FILE":"3885363"},{"COUNTRY_CODE":"US","TLE_LINE1":"1 53014U 22076AE  23100.23075635  .00001467  00000-0  11024-3 0  9996","ECCENTRICITY":"0.00011690","ARG_OF_PERICENTER":"84.9566","INCLINATION":"53.2174","PERIOD":"95.437","FILE":"3885195","GP_ID":"229848970","RCS_SIZE":"LARGE","SEMIMAJOR_AXIS":"6917.874","OBJECT_TYPE":"PAYLOAD","SITE":"AFETR","REF_FRAME":"TEME","NORAD_CAT_ID":"53014","EPHEMERIS_TYPE":"0","RA_OF_ASC_NODE":"182.6618","LAUNCH_DATE":"2022-07-07","TLE_LINE2":"2 53014  53.2174 182.6618 0001169  84.9566 275.1560 15.08842197 42281","MEAN_MOTION_DDOT":"0.0000000000000","TIME_SYSTEM":"UTC","CENTER_NAME":"EARTH","MEAN_ELEMENT_THEORY":"SGP4","MEAN_ANOMALY":"275.1560","PERIAPSIS":"538.930","APOAPSIS":"540.547","BSTAR":"0.00011024000000","CLASSIFICATION_TYPE":"U","EPOCH":"2023-04-10T05:32:17.348640","MEAN_MOTION":"15.08842197","ELEMENT_SET_NO":"999","OBJECT_NAME":"STARLINK-4183","REV_AT_EPOCH":"4228","OBJECT_ID":"2022-076AE","DECAY_DATE":null,"MEAN_MOTION_DOT":"0.00001467"}];
